{"spkid": "20390929", "covariance": {"labels": ["e", "q", "tp", "node", "peri", "i"], "data": [["7.463375364730162E-13", "-9.803441835621504E-13", "8.182868057309099E-11", "1.702327296389829E-12", "3.530747195338737E-11", "3.695580861230326E-11"], ["-9.803441835621504E-13", "1.287727497216644E-12", "-1.07429752019209E-10", "-2.236302065387634E-12", "-4.635451389675158E-11", "-4.854090715495446E-11"], ["8.182868057309099E-11", "-1.07429752019209E-10", "5.932707209827502E-7", "-3.11117618823181E-9", "2.56203489759524E-7", "1.145917587645581E-8"], ["1.702327296389829E-12", "-2.236302065387634E-12", "-3.11117618823181E-9", "1.149842865298766E-10", "-1.430438973143688E-9", "1.115509189094692E-10"], ["3.530747195338737E-11", "-4.635451389675158E-11", "2.56203489759524E-7", "-1.430438973143688E-9", "1.107313168483074E-7", "4.880583181522982E-9"], ["3.695580861230326E-11", "-4.854090715495446E-11", "1.145917587645581E-8", "1.115509189094692E-10", "4.880583181522982E-9", "2.348482500456197E-9"]], "elements": [{"sigma": 8.63908291702896e-07, "name": "e", "value": ".2245196041824426", "title": "eccentricity", "units": null, "label": "e"}, {"label": "q", "value": "1.01460049483807", "title": "perihelion distance", "units": "au", "name": "q", "sigma": 1.13478081461428e-06}, {"label": "tp", "title": "time of perihelion passage", "value": "2458117.037711534699", "units": "TDB", "sigma": 0.000770240690292814, "name": "tp"}, {"sigma": 1.07230726254128e-05, "name": "om", "units": "deg", "title": "longitude of the ascending node", "value": "10.01532019907047", "label": "node"}, {"title": "argument of perihelion", "value": "1.390910674678295", "units": "deg", "sigma": 0.000332763154282903, "name": "w", "label": "peri"}, {"name": "i", "sigma": 4.84611442338725e-05, "title": "inclination", "value": "18.80465213107092", "units": "deg", "label": "i"}], "epoch": "2457940.5"}, "elements": [{"label": "e", "title": "eccentricity", "value": ".2245799913422006", "units": null, "name": "e", "sigma": "8.6428E-7"}, {"units": "au", "title": "semi-major axis", "value": "1.308263085763369", "sigma": "7.215E-9", "name": "a", "label": "a"}, {"units": "au", "title": "perihelion distance", "value": "1.014453373289311", "name": "q", "sigma": "1.1357E-6", "label": "q"}, {"label": "i", "sigma": "4.8448E-5", "name": "i", "units": "deg", "value": "18.80198804488829", "title": "inclination; angle with respect to x-y ecliptic plane"}, {"label": "node", "units": "deg", "title": "longitude of the ascending node", "value": "9.979668693256016", "name": "om", "sigma": "1.0737E-5"}, {"sigma": ".00033276", "name": "w", "value": "1.414100874587031", "title": "argument of perihelion", "units": "deg", "label": "peri"}, {"label": "M", "sigma": ".00050536", "name": "ma", "title": "mean anomaly", "value": "230.8825356621261", "units": "deg"}, {"label": "tp", "units": "TDB", "title": "time of perihelion passage", "value": "2461396.530454049864", "name": "tp", "sigma": ".0007671"}, {"label": "period", "title": "sidereal orbital period", "value": "546.5640439877382", "units": "d", "name": "per", "sigma": "4.5214E-6"}, {"title": "mean motion", "value": ".6586602319710522", "units": "deg/d", "name": "n", "sigma": "5.4487E-9", "label": "n"}, {"sigma": "8.8353E-9", "name": "ad", "units": "au", "value": "1.602072798237427", "title": "aphelion distance", "label": "Q"}], "epoch": "2461200.5"}